{
  "type": "FeatureCollection",
  "features": [
    {
      "type": "Feature",
      "properties": {
        "NAME_1": "Western"
      },
      "geometry": {
        "type": "Polygon",
        "coordinates": [
          [
            [
              22.3,
              -13
            ],
            [
              24.9,
              -12.9
            ],
            [
              25.3,
              -17.7
            ],
            [
              22.6,
              -17.4
            ],
            [
              22.3,
              -13
            ]
          ]
        ]
      },
      "bbox": [
        22.3,
        -17.7,
        25.3,
        -12.9
      ]
    },
    {
      "type": "Feature",
      "properties": {
        "NAME_1": "North-Western"
      },
      "geometry": {
        "type": "Polygon",
        "coordinates": [
          [
            [
              22.6,
              -10.8
            ],
            [
              25.9,
              -10.8
            ],
            [
              26.7,
              -13.5
            ],
            [
              24.6,
              -14.3
            ],
            [
              22.5,
              -13.5
            ],
            [
              22.6,
              -10.8
            ]
          ]
        ]
      },
      "bbox": [
        22.5,
        -14.3,
        26.7,
        -10.8
      ]
    },
    {
      "type": "Feature",
      "properties": {
        "NAME_1": "Copperbelt"
      },
      "geometry": {
        "type": "Polygon",
        "coordinates": [
          [
            [
              26,
              -10.9
            ],
            [
              29.5,
              -10.9
            ],
            [
              29.4,
              -13.4
            ],
            [
              26.3,
              -13.6
            ],
            [
              26,
              -10.9
            ]
          ]
        ]
      },
      "bbox": [
        26,
        -13.6,
        29.5,
        -10.9
      ]
    },
    {
      "type": "Feature",
      "properties": {
        "NAME_1": "Luapula"
      },
      "geometry": {
        "type": "Polygon",
        "coordinates": [
          [
            [
              28.6,
              -8.5
            ],
            [
              30.8,
              -8.5
            ],
            [
              30.8,
              -11.8
            ],
            [
              28.8,
              -11.8
            ],
            [
              28.6,
              -8.5
            ]
          ]
        ]
      },
      "bbox": [
        28.6,
        -11.8,
        30.8,
        -8.5
      ]
    },
    {
      "type": "Feature",
      "properties": {
        "NAME_1": "Northern"
      },
      "geometry": {
        "type": "Polygon",
        "coordinates": [
          [
            [
              30.7,
              -8.5
            ],
            [
              32.9,
              -8.8
            ],
            [
              33.2,
              -11.7
            ],
            [
              31,
              -11.7
            ],
            [
              30.7,
              -8.5
            ]
          ]
        ]
      },
      "bbox": [
        30.7,
        -11.7,
        33.2,
        -8.5
      ]
    },
    {
      "type": "Feature",
      "properties": {
        "NAME_1": "Muchinga"
      },
      "geometry": {
        "type": "Polygon",
        "coordinates": [
          [
            [
              29.1,
              -10.8
            ],
            [
              31.6,
              -10.8
            ],
            [
              31.8,
              -13.2
            ],
            [
              29.4,
              -13.3
            ],
            [
              29.1,
              -10.8
            ]
          ]
        ]
      },
      "bbox": [
        29.1,
        -13.3,
        31.8,
        -10.8
      ]
    },
    {
      "type": "Feature",
      "properties": {
        "NAME_1": "Eastern"
      },
      "geometry": {
        "type": "Polygon",
        "coordinates": [
          [
            [
              30.2,
              -12
            ],
            [
              33.3,
              -11.2
            ],
            [
              33.2,
              -14.8
            ],
            [
              30.2,
              -14.9
            ],
            [
              29.7,
              -13.2
            ],
            [
              30.2,
              -12
            ]
          ]
        ]
      },
      "bbox": [
        29.7,
        -14.9,
        33.3,
        -11.2
      ]
    },
    {
      "type": "Feature",
      "properties": {
        "NAME_1": "Central"
      },
      "geometry": {
        "type": "Polygon",
        "coordinates": [
          [
            [
              26.7,
              -13.1
            ],
            [
              30.5,
              -13.1
            ],
            [
              30.2,
              -15.6
            ],
            [
              27,
              -15.7
            ],
            [
              26.7,
              -13.1
            ]
          ]
        ]
      },
      "bbox": [
        26.7,
        -15.7,
        30.5,
        -13.1
      ]
    },
    {
      "type": "Feature",
      "properties": {
        "NAME_1": "Lusaka"
      },
      "geometry": {
        "type": "Polygon",
        "coordinates": [
          [
            [
              27.9,
              -15
            ],
            [
              29.3,
              -15
            ],
            [
              29.3,
              -15.9
            ],
            [
              27.9,
              -15.9
            ],
            [
              27.9,
              -15
            ]
          ]
        ]
      },
      "bbox": [
        27.9,
        -15.9,
        29.3,
        -15
      ]
    },
    {
      "type": "Feature",
      "properties": {
        "NAME_1": "Southern"
      },
      "geometry": {
        "type": "Polygon",
        "coordinates": [
          [
            [
              24.9,
              -15.8
            ],
            [
              29.2,
              -15.8
            ],
            [
              29,
              -18
            ],
            [
              25.4,
              -17.9
            ],
            [
              24.9,
              -15.8
            ]
          ]
        ]
      },
      "bbox": [
        24.9,
        -18,
        29.2,
        -15.8
      ]
    }
  ],
  "bbox": [
    22.3,
    -18,
    33.3,
    -8.5
  ]
}
